{"type":"FeatureCollection","features":[{"type":"Feature","geometry":{"type":"Polygon","coordinates":[[[24.312863,57.793424],[24.428928,58.383413],[24.061198,58.257375],[23.42656,58.612753],[23.339795,59.18724],[24.604214,59.465854],[25.864189,59.61109],[26.949136,59.445803],[27.981114,59.475388],[28.131699,59.300825],[27.420166,58.724581],[27.716686,57.791899],[27.288185,57.474528],[26.463532,57.476389],[25.60281,57.847529],[25.164594,57.970157],[24.312863,57.793424]]]},"properties":{"name":"Estonia","code":"EST","group":"Countries"}},{"type":"Feature","geometry":{"type":"Polygon","coordinates":[[[21.0558,56.031076],[21.090424,56.783873],[21.581866,57.411871],[22.524341,57.753374],[23.318453,57.006236],[24.12073,57.025693],[24.312863,57.793424],[25.164594,57.970157],[25.60281,57.847529],[26.463532,57.476389],[27.288185,57.474528],[27.770016,57.244258],[27.855282,56.759326],[28.176709,56.16913],[27.10246,55.783314],[26.494331,55.615107],[25.533047,56.100297],[25.000934,56.164531],[24.860684,56.372528],[23.878264,56.273671],[22.201157,56.337802],[21.0558,56.031076]]]},"properties":{"name":"Latvia","code":"LVA","group":"Countries"}},{"type":"Feature","geometry":{"type":"Polygon","coordinates":[[[22.731099,54.327537],[22.651052,54.582741],[22.757764,54.856574],[22.315724,55.015299],[21.268449,55.190482],[21.0558,56.031076],[22.201157,56.337802],[23.878264,56.273671],[24.860684,56.372528],[25.000934,56.164531],[25.533047,56.100297],[26.494331,55.615107],[26.588279,55.167176],[25.768433,54.846963],[25.536354,54.282423],[24.450684,53.905702],[23.484128,53.912498],[23.243987,54.220567],[22.731099,54.327537]]]},"properties":{"name":"Lithuania","code":"LTU","group":"Countries"}},{"type":"Feature","geometry":{"type":"Polygon","coordinates":[[[23.484128,53.912498],[24.450684,53.905702],[25.536354,54.282423],[25.768433,54.846963],[26.588279,55.167176],[26.494331,55.615107],[27.10246,55.783314],[28.176709,56.16913],[29.229513,55.918344],[29.371572,55.670091],[29.896294,55.789463],[30.873909,55.550976],[30.971836,55.081548],[30.757534,54.811771],[31.384472,54.157056],[31.791424,53.974639],[31.731273,53.794029],[32.405599,53.618045],[32.693643,53.351421],[32.304519,53.132726],[31.497644,53.167427],[31.305201,53.073996],[31.540018,52.742052],[31.785998,52.101678],[30.927549,52.042353],[30.619454,51.822806],[30.555117,51.319503],[30.157364,51.416138],[29.254938,51.368234],[28.992835,51.602044],[28.617613,51.427714],[28.241615,51.572227],[27.454066,51.592303],[26.337959,51.832289],[25.327788,51.910656],[24.553106,51.888461],[24.005078,51.617444],[23.527071,51.578454],[23.508002,52.023647],[23.199494,52.486977],[23.799199,52.691099],[23.804935,53.089731],[23.527536,53.470122],[23.484128,53.912498]]]},"properties":{"name":"Belarus","code":"BLR","group":"Countries"}}]}